[{"OBJECT_NAME":"NUSAT-48 (HENRIETTA LEAVITT)","OBJECT_ID":"2024-149AG","EPOCH":"2026-03-09T19:19:17.269536","MEAN_MOTION":15.29812597,"ECCENTRICITY":0.00027538,"INCLINATION":97.3923,"RA_OF_ASC_NODE":150.8264,"ARG_OF_PERICENTER":263.3026,"MEAN_ANOMALY":96.7901,"EPHEMERIS_TYPE":0,"CLASSIFICATION_TYPE":"U","NORAD_CAT_ID":60498,"ELEMENT_SET_NO":999,"REV_AT_EPOCH":8694,"BSTAR":0.00045211745,"MEAN_MOTION_DOT":0.00012988,"MEAN_MOTION_DDOT":0},{"OBJECT_NAME":"CZ-2C R\/B","OBJECT_ID":"2017-085D","EPOCH":"2026-03-09T07:36:19.955232","MEAN_MOTION":15.36259494,"ECCENTRICITY":0.00550258,"INCLINATION":34.6583,"RA_OF_ASC_NODE":163.0948,"ARG_OF_PERICENTER":204.4819,"MEAN_ANOMALY":155.3278,"EPHEMERIS_TYPE":0,"CLASSIFICATION_TYPE":"U","NORAD_CAT_ID":43084,"ELEMENT_SET_NO":999,"REV_AT_EPOCH":45326,"BSTAR":0.00049058122,"MEAN_MOTION_DOT":0.00018774,"MEAN_MOTION_DDOT":0}]
